TDRS 3                  
1 19548U 88091B   24189.32546017 -.00000306  00000+0  00000+0 0  9993
2 19548  13.1463 345.7820 0033451 341.3942  26.5983  1.00264260118271
FLTSATCOM 8 (USA 46)    
1 20253U 89077A   24189.86102475 -.00000373  00000+0  00000+0 0  9992
2 20253  12.6271 355.4267 0004950 106.8574 259.4875  1.00282079253496
SKYNET 4C               
1 20776U 90079A   24188.10535178  .00000118  00000+0  00000+0 0  9998
2 20776  13.5681 354.6667 0001920 127.0597 234.2356  1.00279248123765
TDRS 5                  
1 21639U 91054B   24189.39437323 -.00000309  00000+0  00000+0 0  9999
2 21639  14.1598 358.9610 0002930 207.8960 158.6285  1.00278054120600
TDRS 6                  
1 22314U 93003B   24189.90419377 -.00000303  00000+0  00000+0 0  9996
2 22314  14.1631   2.2594 0011951 156.3947  47.3404  1.00269045115268
UFO 2 (USA 95)          
1 22787U 93056A   24190.12805072  .00000119  00000+0  00000+0 0  9999
2 22787  11.6612   7.2670 0002933 104.4640 249.6019  1.00271359111555
USA 99 (MILSTAR-1 1)    
1 22988U 94009A   24189.60865897 -.00000209  00000+0  00000+0 0  9994
2 22988  16.5407  35.2387 0001751  84.9846 294.9335  1.00270961 24530
UFO 4 (USA 108)         
1 23467U 95003A   24189.79876654 -.00000028  00000+0  00000+0 0  9994
2 23467   9.6678  15.4099 0004951 108.4463 262.2759  1.00275883107839
TDRS 7                  
1 23613U 95035B   24189.42378689 -.00000209  00000+0  00000+0 0  9998
2 23613  13.6726 353.0875 0027962  72.5115  97.7242  1.00270324106131
USA 115 (MILSTAR-1 2)   
1 23712U 95060A   24189.59752287 -.00000028  00000+0  00000+0 0  9993
2 23712  13.8083   8.8830 0000861  74.9779 297.2594  1.00272502 24536
INMARSAT 3-F1           
1 23839U 96020A   24190.10351035 -.00000127  00000+0  00000+0 0  9995
2 23839   9.1089  52.7352 0006917  74.5502 101.6820  0.99979303103465
INMARSAT 3-F2           
1 24307U 96053A   24189.49076998 -.00000270  00000+0  00000+0 0  9993
2 24307   8.2331  60.7717 0008452  45.3684 145.4217  1.00003936101820
INMARSAT 3-F3           
1 24674U 96070A   24189.19946317  .00000127  00000+0  00000+0 0  9997
2 24674   8.7672  56.0552 0005261  66.0004 272.1197  0.99990653100806
GALAXY 25 (G-25)        
1 24812U 97026A   24188.84555388  .00000079  00000+0  00000+0 0  9994
2 24812   5.5893  75.9045 0011016   2.2829 208.2527  0.99091166 99185
INTELSAT 5 (IS-5)       
1 24916U 97046A   24189.51604926 -.00000072  00000+0  00000+0 0  9993
2 24916   8.8449  55.3028 0003371  95.4277 127.1514  1.00272008 98501
AMC-3                   
1 24936U 97050A   24189.17779453 -.00000269  00000+0  00000+0 0  9998
2 24936   6.3960  71.9738 0002417  46.2933 159.3398  1.00271474 45313
USA 134                 
1 25019U 97065A   24189.59917630 -.00000072  00000+0  00000+0 0  9996
2 25019  11.9332  26.7142 0001603  43.9916 318.9519  1.00273318 24492
INMARSAT 3-F5           
1 25153U 98006B   24189.15257623 -.00000299  00000+0  00000+0 0  9993
2 25153   8.0901  59.9193 0004348  46.1603 180.4228  1.00275373 96773
ASTRA 2A                
1 25462U 98050A   24189.84744922  .00000062  00000+0  00000+0 0  9991
2 25462   5.2992  77.2397 0003137  24.1659 187.1476  1.00270425 94620
SKYNET 4E               
1 25639U 99009B   24189.26342384 -.00000043  00000+0  00000+0 0  9994
2 25639  11.6439  12.9674 0002362 102.1570 264.1921  1.00273241 44271
ABS-6                   
1 25924U 99053A   24190.15398346 -.00000121  00000+0  00000+0 0  9996
2 25924   0.0370 281.0212 0003925 188.0042  31.9978  1.00275958 90724
UFO 10 (USA 146)        
1 25967U 99063A   24189.40220527 -.00000194  00000+0  00000+0 0  9995
2 25967   9.4734  30.5556 0002575 117.1357 260.1876  1.00274575 90231
GALAXY 11 (G-11)        
1 26038U 99071A   24189.87237039 -.00000062  00000+0  00000+0 0  9995
2 26038   4.9055  79.0057 0000665 161.6447 166.0013  1.00270816 89962
USA 148                 
1 26052U 00001A   24189.38344108  .00000030  00000+0  00000+0 0  9992
2 26052  10.7426  37.5953 0000281 236.2621 330.4435  1.00274908 25844
ASIASTAR                
1 26107U 00016A   24189.67497436 -.00000342  00000+0  00000+0 0  9991
2 26107   7.4541  65.3620 0003907  39.1208 169.6305  1.00273218 89037
USA 149 (DSP 20)        
1 26356U 00024A   24189.31525061  .00000086  00000+0  00000+0 0  9997
2 26356  12.6318  16.6672 0000896 333.5414 243.8958  1.00260570 25792
TDRS 8                  
1 26388U 00034A   24189.50511219  .00000087  00000+0  00000+0 0  9995
2 26388  11.5659  37.1228 0001182 189.7822  73.4671  1.00280716 88063
INTELSAT 9 (IS-9)       
1 26451U 00043A   24189.83897097  .00000092  00000+0  00000+0 0  9999
2 26451   8.8310  55.4941 0002565  79.5106 107.6780  1.00387476 87734
NSS-11                  
1 26554U 00059A   24189.79954976  .00000021  00000+0  00000+0 0  9997
2 26554   0.2863  88.5759 0002707  13.3215 288.1709  1.00270868 87064
USA 153                 
1 26575U 00065A   24189.93435537 -.00000333  00000+0  00000+0 0  9997
2 26575  10.3899  40.8590 0000949  23.9867 332.2064  1.00268073 24508
AMC-6                   
1 26580U 00067A   24189.43975397  .00000101  00000+0  00000+0 0  9995
2 26580   0.0124  30.5210 0002664  95.4713 179.1873  1.00271320 86778
INTELSAT 1R (IS-1R)     
1 26608U 00072A   24189.47410508 -.00000147  00000+0  00000+0 0  9995
2 26608   6.3147  72.5038 0000504 119.0985  62.0854  1.00271351 34206
