OBJECT_NAME,OBJECT_ID,EPOCH,MEAN_MOTION,ECCENTRICITY,INCLINATION,RA_OF_ASC_NODE,ARG_OF_PERICENTER,MEAN_ANOMALY,EPHEMERIS_TYPE,CLASSIFICATION_TYPE,NORAD_CAT_ID,ELEMENT_SET_NO,REV_AT_EPOCH,BSTAR,MEAN_MOTION_DOT,MEAN_MOTION_DDOT
TDRS 3,1988-091B,2024-07-07T07:48:39.758688,1.00264260,.0033451,13.1463,345.7820,341.3942,26.5983,0,U,19548,999,11827,0,-.306E-5,0
FLTSATCOM 8 (USA 46),1989-077A,2024-07-07T20:39:52.538400,1.00282079,.000495,12.6271,355.4267,106.8574,259.4875,0,U,20253,999,25349,0,-.373E-5,0
SKYNET 4C,1990-079A,2024-07-06T02:31:42.393792,1.00279248,.000192,13.5681,354.6667,127.0597,234.2356,0,U,20776,999,12376,0,.118E-5,0
TDRS 5,1991-054B,2024-07-07T09:27:53.847072,1.00278054,.000293,14.1598,358.9610,207.8960,158.6285,0,U,21639,999,12060,0,-.309E-5,0
TDRS 6,1993-003B,2024-07-07T21:42:02.341728,1.00269045,.0011951,14.1631,2.2594,156.3947,47.3404,0,U,22314,999,11526,0,-.303E-5,0
UFO 2 (USA 95),1993-056A,2024-07-08T03:04:23.582208,1.00271359,.0002933,11.6612,7.2670,104.4640,249.6019,0,U,22787,999,11155,0,.119E-5,0
USA 99 (MILSTAR-1 1),1994-009A,2024-07-07T14:36:28.135008,1.00270961,.0001751,16.5407,35.2387,84.9846,294.9335,0,U,22988,999,2453,0,-.209E-5,0
UFO 4 (USA 108),1995-003A,2024-07-07T19:10:13.429056,1.00275883,.0004951,9.6678,15.4099,108.4463,262.2759,0,U,23467,999,10783,0,-.28E-6,0
TDRS 7,1995-035B,2024-07-07T10:10:15.187296,1.00270324,.0027962,13.6726,353.0875,72.5115,97.7242,0,U,23613,999,10613,0,-.209E-5,0
USA 115 (MILSTAR-1 2),1995-060A,2024-07-07T14:20:25.975968,1.00272502,.0000861,13.8083,8.8830,74.9779,297.2594,0,U,23712,999,2453,0,-.28E-6,0
INMARSAT 3-F1,1996-020A,2024-07-08T02:29:03.294240,0.99979303,.0006917,9.1089,52.7352,74.5502,101.6820,0,U,23839,999,10346,0,-.127E-5,0
INMARSAT 3-F2,1996-053A,2024-07-07T11:46:42.526272,1.00003936,.0008452,8.2331,60.7717,45.3684,145.4217,0,U,24307,999,10182,0,-.27E-5,0
INMARSAT 3-F3,1996-070A,2024-07-07T04:47:13.617888,0.99990653,.0005261,8.7672,56.0552,66.0004,272.1197,0,U,24674,999,10080,0,.127E-5,0
GALAXY 25 (G-25),1997-026A,2024-07-06T20:17:35.855232,0.99091166,.0011016,5.5893,75.9045,2.2829,208.2527,0,U,24812,999,9918,0,.79E-6,0
INTELSAT 5 (IS-5),1997-046A,2024-07-07T12:23:06.656064,1.00272008,.0003371,8.8449,55.3028,95.4277,127.1514,0,U,24916,999,9850,0,-.72E-6,0
AMC-3,1997-050A,2024-07-07T04:16:01.447392,1.00271474,.0002417,6.3960,71.9738,46.2933,159.3398,0,U,24936,999,4531,0,-.269E-5,0
USA 134,1997-065A,2024-07-07T14:22:48.832320,1.00273318,.0001603,11.9332,26.7142,43.9916,318.9519,0,U,25019,999,2449,0,-.72E-6,0
INMARSAT 3-F5,1998-006B,2024-07-07T03:39:42.586272,1.00275373,.0004348,8.0901,59.9193,46.1603,180.4228,0,U,25153,999,9677,0,-.299E-5,0
ASTRA 2A,1998-050A,2024-07-07T20:20:19.612608,1.00270425,.0003137,5.2992,77.2397,24.1659,187.1476,0,U,25462,999,9462,0,.62E-6,0
SKYNET 4E,1999-009B,2024-07-07T06:19:19.819776,1.00273241,.0002362,11.6439,12.9674,102.1570,264.1921,0,U,25639,999,4427,0,-.43E-6,0
ABS-6,1999-053A,2024-07-08T03:41:44.170944,1.00275958,.0003925,0.0370,281.0212,188.0042,31.9978,0,U,25924,999,9072,0,-.121E-5,0
UFO 10 (USA 146),1999-063A,2024-07-07T09:39:10.535328,1.00274575,.0002575,9.4734,30.5556,117.1357,260.1876,0,U,25967,999,9023,0,-.194E-5,0
GALAXY 11 (G-11),1999-071A,2024-07-07T20:56:12.801696,1.00270816,.0000665,4.9055,79.0057,161.6447,166.0013,0,U,26038,999,8996,0,-.62E-6,0
USA 148,2000-001A,2024-07-07T09:12:09.309312,1.00274908,.0000281,10.7426,37.5953,236.2621,330.4435,0,U,26052,999,2584,0,.3E-6,0
ASIASTAR,2000-016A,2024-07-07T16:11:57.784704,1.00273218,.0003907,7.4541,65.3620,39.1208,169.6305,0,U,26107,999,8903,0,-.342E-5,0
USA 149 (DSP 20),2000-024A,2024-07-07T07:33:57.652704,1.00260570,.0000896,12.6318,16.6672,333.5414,243.8958,0,U,26356,999,2579,0,.86E-6,0
TDRS 8,2000-034A,2024-07-07T12:07:21.693216,1.00280716,.0001182,11.5659,37.1228,189.7822,73.4671,0,U,26388,999,8806,0,.87E-6,0
INTELSAT 9 (IS-9),2000-043A,2024-07-07T20:08:07.091808,1.00387476,.0002565,8.8310,55.4941,79.5106,107.6780,0,U,26451,999,8773,0,.92E-6,0
NSS-11,2000-059A,2024-07-07T19:11:21.099264,1.00270868,.0002707,0.2863,88.5759,13.3215,288.1709,0,U,26554,999,8706,0,.21E-6,0
USA 153,2000-065A,2024-07-07T22:25:28.303968,1.00268073,.0000949,10.3899,40.8590,23.9867,332.2064,0,U,26575,999,2450,0,-.333E-5,0
AMC-6,2000-067A,2024-07-07T10:33:14.743008,1.00271320,.0002664,0.0124,30.5210,95.4713,179.1873,0,U,26580,999,8677,0,.101E-5,0
INTELSAT 1R (IS-1R),2000-072A,2024-07-07T11:22:42.678912,1.00271351,.0000504,6.3147,72.5038,119.0985,62.0854,0,U,26608,999,3420,0,-.147E-5,0
